COSMOS 2413 (712)       
1 28509U 04053B   12353.02343280 -.00000002  00000-0  10000-3 0  2161
2 28509  63.2696 235.6936 0004591 149.5753 105.1005  2.13100664 62086
COSMOS 2419 (714)       
1 28915U 05050A   12352.78943924  .00000045  00000-0  00000+0 0  9701
2 28915  64.9282 121.2300 0015307 353.4026  64.9308  2.13101843 54334
COSMOS 2425 (716)       
1 29670U 06062A   12352.18972537 -.00000054  00000-0  10000-3 0  6770
2 29670  65.8865 359.9602 0021639 339.6995  52.4053  2.13105273 46523
COSMOS 2426 (717)       
1 29671U 06062B   12353.03388189 -.00000054  00000-0  10000-3 0  6961
2 29671  65.9027 359.9860 0017882 175.3911  14.4772  2.13103202 46547
COSMOS 2424 (715)       
1 29672U 06062C   12352.25099043 -.00000054  00000-0  10000-3 0  6974
2 29672  65.8880 359.9644 0017348 174.5338 314.5471  2.13103142 46526
COSMOS 2433 (720)       
1 32275U 07052A   12351.90383721  .00000041  00000-0  10000-3 0  4228
2 32275  64.9412 121.0078 0001527 198.4796 169.5261  2.13096522 40032
COSMOS 2432 (719)       
1 32276U 07052B   12352.08674343  .00000042  00000-0  10000-3 0  4065
2 32276  64.9536 121.0458 0011333 346.5286 116.0369  2.13098084 40039
COSMOS 2434 (721)       
1 32393U 07065A   12352.20182541 -.00000055  00000-0  00000+0 0  2605
2 32393  65.5112 359.8861 0003070 156.5867 337.8495  2.13102920 38741
COSMOS 2435 (722)       
1 32394U 07065B   12352.25241381 -.00000055  00000-0  10000-3 0  1726
2 32394  65.5147 359.8790 0018797 352.3235 136.9566  2.13103923 38682
COSMOS 2436 (723)       
1 32395U 07065C   12352.08981756 -.00000054  00000-0  10000-3 0  1757
2 32395  65.5236 359.9123 0016438 344.6108 155.5781  2.13103074 38678
COSMOS 2442 (724)       
1 33378U 08046A   12352.30342345  .00000042  00000-0  10000-3 0  2048
2 33378  64.8565 120.4911 0022498 335.9871  26.7087  2.13103793 32902
COSMOS 2443 (725)       
1 33379U 08046B   12353.18076845  .00000045  00000-0  10000-3 0  1913
2 33379  64.8653 120.5097 0020992 179.1933   1.5575  2.13101718 32921
COSMOS 2444 (726)       
1 33380U 08046C   12353.19366046  .00000045  00000-0  10000-3 0  1988
2 33380  64.8734 120.5317 0023419 326.5024 180.8117  2.13103150 32918
COSMOS 2447 (727)       
1 33466U 08067A   12353.09950213 -.00000008  00000-0  00000+0 0  1378
2 33466  64.1098 239.8090 0003552 270.9933 265.8432  2.13101503 30976
COSMOS 2449 (729)       
1 33467U 08067B   12352.74163831 -.00000005  00000-0  10000-3 0  1374
2 33467  64.0988 239.7907 0003757 296.9514 100.8109  2.13102055 30994
COSMOS 2448 (728)       
1 33468U 08067C   12352.48457927 -.00000002  00000-0  10000-3 0  1308
2 33468  64.1022 239.8067 0005202 318.6947 149.7551  2.13101772 30978
COSMOS 2456 (730)       
1 36111U 09070A   12352.41427010 -.00000001  00000-0  00000+0 0  8743
2 36111  64.3387 240.0115 0005542 328.7299 132.5435  2.13102038 23417
COSMOS 2457 (733)       
1 36112U 09070B   12353.18201308 -.00000008  00000-0  00000+0 0  8601
2 36112  64.3201 239.9406 0005986 153.6048 311.4656  2.13101711 23434
COSMOS 2458 (734)       
1 36113U 09070C   12352.17530168  .00000001  00000-0  10000-3 0  8651
2 36113  64.3257 239.9720 0002269  17.5696  80.7576  2.13102063 23419
COSMOS 2459 (731)       
1 36400U 10007A   12352.18462958  .00000042  00000-0  10000-3 0  8031
2 36400  64.8414 120.3184 0029574 356.8525  95.6311  2.13102589 21764
COSMOS 2461 (735)       
1 36401U 10007B   12353.15953704  .00000044  00000-0  10000-3 0  8025
2 36401  64.8342 120.2781 0007101  98.4571 292.2648  2.13102641 21788
COSMOS 2460 (732)       
1 36402U 10007C   12352.20663883  .00000042  00000-0  10000-3 0  8104
2 36402  64.8242 120.3035 0002454 138.4650 284.9807  2.13102277 21768
COSMOS 2466 (738)       
1 37137U 10041A   12353.18313041 -.00000056  00000-0  10000-3 0  6760
2 37137  65.0906   0.6202 0021378 160.7209 230.5823  2.13102599 17862
COSMOS 2465 (737)       
1 37138U 10041B   12352.58675432 -.00000056  00000-0  00000+0 0  6809
2 37138  65.1063   0.6890 0035820 171.6575 303.0903  2.13102986 17848
COSMOS 2464 (736)       
1 37139U 10041C   12352.74560690 -.00000056  00000-0  00000+0 0  6650
2 37139  65.1086   0.6724 0019236   7.4644   3.7240  2.13102892 17851
COSMOS 2471 (701K)      
1 37372U 11009A   12353.19114652  .00000044  00000-0  10000-3 0  5400
2 37372  64.8359 120.2047 0005340 222.2428 345.7469  2.13107349 14068
COSMOS 2474 (742)       
1 37829U 11055A   12353.14155804 -.00000008  00000-0  00000+0 0  3669
2 37829  64.6583 239.8718 0007272 274.2114 250.4783  2.13101836  9429
COSMOS 2476 (744)       
1 37867U 11064A   12353.09950194 -.00000007  00000-0  00000+0 0  3355
2 37867  64.6395 239.9884 0016021 263.5004 274.1166  2.13102154  8777
COSMOS 2477 (745)       
1 37868U 11064B   12352.18165147  .00000002  00000-0  00000+0 0  3344
2 37868  64.6483 240.0461 0014289 265.3123 108.1640  2.13102094  8716
COSMOS 2475 (743)       
1 37869U 11064C   12352.47969307 -.00000002  00000-0  10000-3 0  3231
2 37869  64.6545 240.0215 0020360 283.1958 184.1476  2.13102344  8724
COSMOS 2478 (746)       
1 37938U 11071A   12352.28156053  .00000042  00000-0  00000+0 0  3149
2 37938  64.8540 120.4236 0011625 230.9064 159.8136  2.13102599  8335
